{
  "type": "FeatureCollection",
  "features": [
    {
      "type": "Feature",
      "properties": {
        "norad_id": 34722,
        "name": "COSMOS 2251 DEB",
        "group": "cosmos-2251-debris",
        "lat": -20.93047740264934,
        "lon": -31.02325919010213,
        "alt_km": 829.4764451347473,
        "timestamp": "2025-12-13T03:42:11.667045+00:00",
        "meta_object_name": "COSMOS 2251 DEB",
        "meta_object_id": "1993-036YQ",
        "meta_epoch": "2025-12-11T23:02:01.807296",
        "meta_mean_motion": 14.11930653,
        "meta_eccentricity": 0.0167178,
        "meta_inclination": 73.8736,
        "meta_ra_of_asc_node": 337.4593,
        "meta_arg_of_pericenter": 263.1594,
        "meta_mean_anomaly": 123.7183,
        "meta_ephemeris_type": 0,
        "meta_classification_type": "U",
        "meta_norad_cat_id": 34722,
        "meta_element_set_no": 999,
        "meta_rev_at_epoch": 86234,
        "meta_bstar": 0.0012458,
        "meta_mean_motion_dot": 2.572e-05,
        "meta_mean_motion_ddot": 0,
        "tle_line1": "1 34722U 93036YQ  25345.95974314  .00002572  00000+0  12458-2 0  9997",
        "tle_line2": "2 34722  73.8736 337.4593 0167178 263.1594 123.7183 14.11930653862349"
      },
      "geometry": {
        "type": "Point",
        "coordinates": [
          -31.02325919010213,
          -20.93047740264934
        ]
      }
    },
    {
      "type": "Feature",
      "properties": {
        "norad_id": 34726,
        "name": "COSMOS 2251 DEB",
        "group": "cosmos-2251-debris",
        "lat": 68.23821145024482,
        "lon": 31.373687190507553,
        "alt_km": 673.4727446810857,
        "timestamp": "2025-12-13T03:42:11.667055+00:00",
        "meta_object_name": "COSMOS 2251 DEB",
        "meta_object_id": "1993-036YU",
        "meta_epoch": "2025-12-12T02:41:01.971168",
        "meta_mean_motion": 14.59478237,
        "meta_eccentricity": 0.00420093,
        "meta_inclination": 74.0292,
        "meta_ra_of_asc_node": 347.5214,
        "meta_arg_of_pericenter": 138.5853,
        "meta_mean_anomaly": 221.8511,
        "meta_ephemeris_type": 0,
        "meta_classification_type": "U",
        "meta_norad_cat_id": 34726,
        "meta_element_set_no": 999,
        "meta_rev_at_epoch": 88493,
        "meta_bstar": 0.00063784087,
        "meta_mean_motion_dot": 3.035e-05,
        "meta_mean_motion_ddot": 0,
        "tle_line1": "1 34726U 93036YU  25346.11182837  .00003035  00000+0  63784-3 0  9995",
        "tle_line2": "2 34726  74.0292 347.5214 0042009 138.5853 221.8511 14.59478237884934"
      },
      "geometry": {
        "type": "Point",
        "coordinates": [
          31.373687190507553,
          68.23821145024482
        ]
      }
    },
    {
      "type": "Feature",
      "properties": {
        "norad_id": 34728,
        "name": "COSMOS 2251 DEB",
        "group": "cosmos-2251-debris",
        "lat": -28.850048196101316,
        "lon": -118.12013665147674,
        "alt_km": 658.0115852262961,
        "timestamp": "2025-12-13T03:42:11.667066+00:00",
        "meta_object_name": "COSMOS 2251 DEB",
        "meta_object_id": "1993-036YW",
        "meta_epoch": "2025-12-11T04:29:59.758080",
        "meta_mean_motion": 14.70822014,
        "meta_eccentricity": 0.00410943,
        "meta_inclination": 74.0167,
        "meta_ra_of_asc_node": 254.786,
        "meta_arg_of_pericenter": 52.8242,
        "meta_mean_anomaly": 307.667,
        "meta_ephemeris_type": 0,
        "meta_classification_type": "U",
        "meta_norad_cat_id": 34728,
        "meta_element_set_no": 999,
        "meta_rev_at_epoch": 88777,
        "meta_bstar": 0.0013421993,
        "meta_mean_motion_dot": 8.287e-05,
        "meta_mean_motion_ddot": 0,
        "tle_line1": "1 34728U 93036YW  25345.18749720  .00008287  00000+0  13422-2 0  9990",
        "tle_line2": "2 34728  74.0167 254.7860 0041094  52.8242 307.6670 14.70822014887779"
      },
      "geometry": {
        "type": "Point",
        "coordinates": [
          -118.12013665147674,
          -28.850048196101316
        ]
      }
    },
    {
      "type": "Feature",
      "properties": {
        "norad_id": 34729,
        "name": "COSMOS 2251 DEB",
        "group": "cosmos-2251-debris",
        "lat": 1.5472932693484927,
        "lon": -1.9467749732878448,
        "alt_km": 626.3824922397862,
        "timestamp": "2025-12-13T03:42:11.667076+00:00",
        "meta_object_name": "COSMOS 2251 DEB",
        "meta_object_id": "1993-036YX",
        "meta_epoch": "2025-12-12T05:35:45.004128",
        "meta_mean_motion": 14.82779241,
        "meta_eccentricity": 0.00118294,
        "meta_inclination": 74.0185,
        "meta_ra_of_asc_node": 359.4332,
        "meta_arg_of_pericenter": 118.7261,
        "meta_mean_anomaly": 8.0569,
        "meta_ephemeris_type": 0,
        "meta_classification_type": "U",
        "meta_norad_cat_id": 34729,
        "meta_element_set_no": 999,
        "meta_rev_at_epoch": 88450,
        "meta_bstar": 0.0027312554,
        "meta_mean_motion_dot": 0.00022148,
        "meta_mean_motion_ddot": 0,
        "tle_line1": "1 34729U 93036YX  25346.23315977  .00022148  00000+0  27313-2 0  9997",
        "tle_line2": "2 34729  74.0185 359.4332 0011829 118.7261   8.0569 14.82779241884506"
      },
      "geometry": {
        "type": "Point",
        "coordinates": [
          -1.9467749732878448,
          1.5472932693484927
        ]
      }
    },
    {
      "type": "Feature",
      "properties": {
        "norad_id": 34732,
        "name": "COSMOS 2251 DEB",
        "group": "cosmos-2251-debris",
        "lat": 5.204219042914416,
        "lon": -89.08070973169218,
        "alt_km": 725.878373535761,
        "timestamp": "2025-12-13T03:42:11.667085+00:00",
        "meta_object_name": "COSMOS 2251 DEB",
        "meta_object_id": "1993-036ZA",
        "meta_epoch": "2025-12-11T07:54:25.399296",
        "meta_mean_motion": 14.47298707,
        "meta_eccentricity": 0.00404226,
        "meta_inclination": 74.0452,
        "meta_ra_of_asc_node": 95.821,
        "meta_arg_of_pericenter": 247.1005,
        "meta_mean_anomaly": 143.733,
        "meta_ephemeris_type": 0,
        "meta_classification_type": "U",
        "meta_norad_cat_id": 34732,
        "meta_element_set_no": 999,
        "meta_rev_at_epoch": 88123,
        "meta_bstar": 0.00027123805,
        "meta_mean_motion_dot": 9.75e-06,
        "meta_mean_motion_ddot": 0,
        "tle_line1": "1 34732U 93036ZA  25345.32946064  .00000975  00000+0  27124-3 0  9992",
        "tle_line2": "2 34732  74.0452  95.8210 0040422 247.1005 143.7330 14.47298707881231"
      },
      "geometry": {
        "type": "Point",
        "coordinates": [
          -89.08070973169218,
          5.204219042914416
        ]
      }
    },
    {
      "type": "Feature",
      "properties": {
        "norad_id": 34736,
        "name": "COSMOS 2251 DEB",
        "group": "cosmos-2251-debris",
        "lat": 73.87368372552324,
        "lon": 132.40777871534746,
        "alt_km": 418.4327077263333,
        "timestamp": "2025-12-13T03:42:11.667095+00:00",
        "meta_object_name": "COSMOS 2251 DEB",
        "meta_object_id": "1993-036ZE",
        "meta_epoch": "2025-12-12T04:02:07.944864",
        "meta_mean_motion": 15.47101269,
        "meta_eccentricity": 0.00171231,
        "meta_inclination": 74.0014,
        "meta_ra_of_asc_node": 37.48,
        "meta_arg_of_pericenter": 347.7208,
        "meta_mean_anomaly": 12.3583,
        "meta_ephemeris_type": 0,
        "meta_classification_type": "U",
        "meta_norad_cat_id": 34736,
        "meta_element_set_no": 999,
        "meta_rev_at_epoch": 88439,
        "meta_bstar": 0.0092924803,
        "meta_mean_motion_dot": 0.00504732,
        "meta_mean_motion_ddot": 0,
        "tle_line1": "1 34736U 93036ZE  25346.16814751  .00504732  00000+0  92925-2 0  9996",
        "tle_line2": "2 34736  74.0014  37.4800 0017123 347.7208  12.3583 15.47101269884398"
      },
      "geometry": {
        "type": "Point",
        "coordinates": [
          132.40777871534746,
          73.87368372552324
        ]
      }
    },
    {
      "type": "Feature",
      "properties": {
        "norad_id": 34738,
        "name": "COSMOS 2251 DEB",
        "group": "cosmos-2251-debris",
        "lat": -24.196545774828493,
        "lon": -30.10732653043362,
        "alt_km": 738.9329792052285,
        "timestamp": "2025-12-13T03:42:11.667106+00:00",
        "meta_object_name": "COSMOS 2251 DEB",
        "meta_object_id": "1993-036ZG",
        "meta_epoch": "2025-12-11T21:26:26.743776",
        "meta_mean_motion": 14.4629911,
        "meta_eccentricity": 0.0047366,
        "meta_inclination": 74.0143,
        "meta_ra_of_asc_node": 144.8478,
        "meta_arg_of_pericenter": 291.2709,
        "meta_mean_anomaly": 191.7581,
        "meta_ephemeris_type": 0,
        "meta_classification_type": "U",
        "meta_norad_cat_id": 34738,
        "meta_element_set_no": 999,
        "meta_rev_at_epoch": 87846,
        "meta_bstar": 0.00050573,
        "meta_mean_motion_dot": 1.81e-05,
        "meta_mean_motion_ddot": 0,
        "tle_line1": "1 34738U 93036ZG  25345.89336509  .00001810  00000+0  50573-3 0  9990",
        "tle_line2": "2 34738  74.0143 144.8478 0047366 291.2709 191.7581 14.46299110878460"
      },
      "geometry": {
        "type": "Point",
        "coordinates": [
          -30.10732653043362,
          -24.196545774828493
        ]
      }
    }
  ]
}